[{"OBJECT_NAME":"STARLINK-32902","OBJECT_ID":"2025-024V","EPOCH":"2026-03-09T01:20:52.342368","MEAN_MOTION":15.27572386,"ECCENTRICITY":0.00021903,"INCLINATION":43.0019,"RA_OF_ASC_NODE":328.5403,"ARG_OF_PERICENTER":279.9979,"MEAN_ANOMALY":80.0626,"EPHEMERIS_TYPE":0,"CLASSIFICATION_TYPE":"U","NORAD_CAT_ID":62898,"ELEMENT_SET_NO":999,"REV_AT_EPOCH":6217,"BSTAR":0.0015816344,"MEAN_MOTION_DOT":0.00043509,"MEAN_MOTION_DDOT":0},{"OBJECT_NAME":"PUCP-SAT 1","OBJECT_ID":"2013-066AC","EPOCH":"2026-03-09T22:02:13.763904","MEAN_MOTION":15.29426022,"ECCENTRICITY":0.00136836,"INCLINATION":97.5787,"RA_OF_ASC_NODE":61.0032,"ARG_OF_PERICENTER":300.1183,"MEAN_ANOMALY":59.87,"EPHEMERIS_TYPE":0,"CLASSIFICATION_TYPE":"U","NORAD_CAT_ID":39442,"ELEMENT_SET_NO":999,"REV_AT_EPOCH":66907,"BSTAR":0.00088755185,"MEAN_MOTION_DOT":0.00025373,"MEAN_MOTION_DDOT":0}]
